[{"OBJECT_NAME":"OBJECT Z","OBJECT_ID":"2025-313Z","EPOCH":"2026-03-09T23:02:13.726176","MEAN_MOTION":15.20703812,"ECCENTRICITY":0.00148585,"INCLINATION":97.4007,"RA_OF_ASC_NODE":145.164,"ARG_OF_PERICENTER":355.5095,"MEAN_ANOMALY":4.6005,"EPHEMERIS_TYPE":0,"CLASSIFICATION_TYPE":"U","NORAD_CAT_ID":67271,"ELEMENT_SET_NO":999,"REV_AT_EPOCH":1085,"BSTAR":0.00029410612,"MEAN_MOTION_DOT":6.416e-5,"MEAN_MOTION_DDOT":0},{"OBJECT_NAME":"LANDSAT 5","OBJECT_ID":"1984-021A","EPOCH":"2026-03-09T17:06:39.595392","MEAN_MOTION":15.03956175,"ECCENTRICITY":0.00705197,"INCLINATION":98.0698,"RA_OF_ASC_NODE":343.5816,"ARG_OF_PERICENTER":90.3041,"MEAN_ANOMALY":270.6265,"EPHEMERIS_TYPE":0,"CLASSIFICATION_TYPE":"U","NORAD_CAT_ID":14780,"ELEMENT_SET_NO":999,"REV_AT_EPOCH":77643,"BSTAR":0.00029889959,"MEAN_MOTION_DOT":4.286e-5,"MEAN_MOTION_DDOT":0}]
